[{"OBJECT_NAME":"PATHFINDER 1","OBJECT_ID":"2016-059E","EPOCH":"2026-03-09T22:26:32.347968","MEAN_MOTION":14.67518797,"ECCENTRICITY":0.00289613,"INCLINATION":97.8179,"RA_OF_ASC_NODE":72.6978,"ARG_OF_PERICENTER":160.0111,"MEAN_ANOMALY":200.2236,"EPHEMERIS_TYPE":0,"CLASSIFICATION_TYPE":"U","NORAD_CAT_ID":41787,"ELEMENT_SET_NO":999,"REV_AT_EPOCH":50515,"BSTAR":0.00018125608,"MEAN_MOTION_DOT":9.87e-6,"MEAN_MOTION_DDOT":0},{"OBJECT_NAME":"ARIANE 1 DEB","OBJECT_ID":"1986-019VN","EPOCH":"2026-03-09T21:17:38.336928","MEAN_MOTION":14.54855359,"ECCENTRICITY":0.00364166,"INCLINATION":98.2533,"RA_OF_ASC_NODE":48.7738,"ARG_OF_PERICENTER":265.1509,"MEAN_ANOMALY":153.4007,"EPHEMERIS_TYPE":0,"CLASSIFICATION_TYPE":"U","NORAD_CAT_ID":27596,"ELEMENT_SET_NO":999,"REV_AT_EPOCH":59971,"BSTAR":0.00079843543,"MEAN_MOTION_DOT":3.412e-5,"MEAN_MOTION_DDOT":0}]
